GPS BIIR-2  (PRN 13)    
1 24876U 97035A   24156.81328352  .00000025  00000+0  00000+0 0  9996
2 24876  55.6674 127.6156 0079276  51.9809 308.6967  2.00565481196863
GPS BIIR-4  (PRN 20)    
1 26360U 00025A   24156.43228580 -.00000092  00000+0  00000+0 0  9994
2 26360  54.6569  49.4011 0037051 214.5094 315.4612  2.00548703176379
GPS BIIR-5  (PRN 22)    
1 26407U 00040A   24156.42756196  .00000001  00000+0  00000+0 0  9990
2 26407  55.0714 244.6928 0144962 294.5498  75.0886  2.00560062175058
GPS BIIR-8  (PRN 16)    
1 27663U 03005A   24155.24477713 -.00000008  00000+0  00000+0 0  9991
2 27663  55.1107 244.5510 0136592  47.3499 323.3063  2.00575607156394
GPS BIIR-9  (PRN 21)    
1 27704U 03010A   24156.18144994 -.00000090  00000+0  00000+0 0  9990
2 27704  55.1002 354.3148 0253313 327.2194 219.0370  2.00562387155206
GPS BIIR-11 (PRN 19)    
1 28190U 04009A   24156.53733113 -.00000081  00000+0  00000+0 0  9995
2 28190  55.4657 305.5439 0097588 147.4877 236.6328  2.00559506148058
GPS BIIR-13 (PRN 02)    
1 28474U 04045A   24156.20420135 -.00000090  00000+0  00000+0 0  9991
2 28474  55.4287 354.7284 0161870 292.1694 256.7591  2.00560906143525
GPS BIIRM-1 (PRN 17)    
1 28874U 05038A   24156.47886894 -.00000080  00000+0  00000+0 0  9994
2 28874  55.5122 303.0072 0136005 284.0994  82.0083  2.00556194136943
GPS BIIRM-2 (PRN 31)    
1 29486U 06042A   24156.57183220  .00000094  00000+0  00000+0 0  9998
2 29486  54.6780 180.7862 0103243  37.9067 295.8060  2.00556482129495
GPS BIIRM-3 (PRN 12)    
1 29601U 06052A   24156.53613375  .00000005  00000+0  00000+0 0  9995
2 29601  55.1400 243.4764 0085372  82.9551 278.0621  2.00566972128510
GPS BIIRM-4 (PRN 15)    
1 32260U 07047A   24156.33913200 -.00000008  00000+0  00000+0 0  9997
2 32260  53.6011 110.7818 0154546  75.0379 286.6233  2.00564685121913
GPS BIIRM-5 (PRN 29)    
1 32384U 07062A   24156.78453788 -.00000080  00000+0  00000+0 0  9990
2 32384  55.6510 303.8557 0028287 150.4509 299.0873  2.00574054120688
GPS BIIRM-6 (PRN 07)    
1 32711U 08012A   24156.25879598  .00000097  00000+0  00000+0 0  9990
2 32711  54.4504 179.5649 0187601 238.9334 119.2735  2.00567715118858
GPS BIIRM-8 (PRN 05)    
1 35752U 09043A   24156.47100860 -.00000087  00000+0  00000+0 0  9996
2 35752  55.6631  56.7886 0056670  71.4673  97.7707  2.00569781108466
GPS BIIF-1  (PRN 25)    
1 36585U 10022A   24156.59389778  .00000015  00000+0  00000+0 0  9990
2 36585  54.4492 238.5087 0114275  61.9387 318.2141  2.00550514102706
GPS BIIF-3  (PRN 24)    
1 38833U 12053A   24156.43567787  .00000093  00000+0  00000+0 0  9991
2 38833  53.5163 173.9899 0151237  55.6403 305.8362  2.00558385 84542
GPS BIIF-4  (PRN 27)    
1 39166U 13023A   24156.29873459 -.00000078  00000+0  00000+0 0  9993
2 39166  55.1248 299.1005 0123992  44.7915 316.1772  2.00562797 80984
GPS BIIF-5  (PRN 30)    
1 39533U 14008A   24156.30013501  .00000095  00000+0  00000+0 0  9999
2 39533  53.5991 179.5913 0073026 220.3668 139.1514  2.00567636 74782
GPS BIIF-6  (PRN 06)    
1 39741U 14026A   24156.57698902 -.00000089  00000+0  00000+0 0  9997
2 39741  56.7104   0.3554 0031257 317.1067  42.6886  2.00569223 73631
GPS BIIF-7  (PRN 09)    
1 40105U 14045A   24156.17164631  .00000013  00000+0  00000+0 0  9993
2 40105  54.9260 118.1283 0025176 115.4624 244.7600  2.00565336 71175
GPS BIIF-8  (PRN 03)    
1 40294U 14068A   24156.04357835 -.00000084  00000+0  00000+0 0  9992
2 40294  56.4102  59.7530 0053473  61.5767 298.9741  2.00558856 70301
GPS BIIF-9  (PRN 26)    
1 40534U 15013A   24156.17547456  .00000018  00000+0  00000+0 0  9990
2 40534  53.3474 234.9374 0087558  29.7513 330.8044  2.00566147 66922
GPS BIIF-10 (PRN 08)    
1 40730U 15033A   24156.33726128 -.00000077  00000+0  00000+0 0  9999
2 40730  54.6084 297.5786 0093954  19.6377 340.6955  2.00567592 65098
GPS BIIF-11 (PRN 10)    
1 41019U 15062A   24155.89713255 -.00000084  00000+0  00000+0 0  9997
2 41019  56.3904  59.6116 0094938 225.1470 134.0922  2.00562378 62929
GPS BIIF-12 (PRN 32)    
1 41328U 16007A   24155.97769596  .00000018  00000+0  00000+0 0  9994
2 41328  55.1215 118.9754 0079818 238.8745 120.3048  2.00562459 60933
GPS BIII-1  (PRN 04)    
1 43873U 18109A   24156.36560876  .00000018  00000+0  00000+0 0  9990
2 43873  55.2930 121.5343 0028927 195.6504 336.2623  2.00555349 40178
GPS BIII-2  (PRN 18)    
1 44506U 19056A   24156.55967800 -.00000091  00000+0  00000+0 0  9997
2 44506  55.8410   0.5827 0041944 188.1964  24.8155  2.00571482 35164
GPS BIII-3  (PRN 23)    
1 45854U 20041A   24156.59651831 -.00000086  00000+0  00000+0 0  9992
2 45854  56.1128  57.9211 0042336 193.0036 342.4507  2.00558736 29143
GPS BIII-4  (PRN 14)    
1 46826U 20078A   24156.38793354  .00000008  00000+0  00000+0 0  9999
2 46826  54.1850 240.9286 0046038 196.5034 166.6652  2.00560055 26611
GPS BIII-5  (PRN 11)    
1 48859U 21054A   24156.47279994 -.00000092  00000+0  00000+0 0  9995
2 48859  55.3655   2.2433 0014625 219.3795  30.0209  2.00558667 21852
GPS BIII-6  (PRN 28)    
1 55268U 23009A   24155.57490233  .00000104  00000+0  00000+0 0  9993
2 55268  55.0862 177.7007 0000901 110.0035 253.1048  2.00564958 10321
